GLOBALSTAR M084         
1 38040U 11080A   25098.55136175 -.00000082  00000+0  11919-3 0  9996
2 38040  52.0001 260.4706 0000572 126.9575 310.4326 12.62264735613871
GLOBALSTAR M080         
1 38041U 11080B   25098.51266913 -.00000090  00000+0  74461-4 0  9998
2 38041  52.0053 262.1710 0000830 139.1572 242.2320 12.62291662613991
GLOBALSTAR M082         
1 38042U 11080C   25098.60305553 -.00000107  00000+0 -15675-4 0  9995
2 38042  52.0069 217.3330 0000826  85.1474 287.5963 12.62264927614715
GLOBALSTAR M092         
1 38043U 11080D   25098.29478995 -.00000056  00000+0  26441-3 0  9996
2 38043  52.0091 308.6457 0000720  90.0172  81.7428 12.62262326613123
GLOBALSTAR M090         
1 38044U 11080E   25098.47884100 -.00000105  00000+0 -90838-5 0  9995
2 38044  51.9881 211.6097 0000735 105.3734 302.2699 12.62268882614813
GLOBALSTAR M086         
1 38045U 11080F   25098.60071177 -.00000110  00000+0 -35418-4 0  9991
2 38045  51.9893 211.7840 0001402 146.0315 336.0946 12.62268993614771
GLOBALSTAR M097         
1 39072U 13005A   25098.44207115 -.00000086  00000+0  98098-4 0  9990
2 39072  52.0022 126.7429 0000528 111.7669 248.3254 12.62271625562006
GLOBALSTAR M093         
1 39073U 13005B   25098.41536674 -.00000084  00000+0  10855-3 0  9995
2 39073  51.9787 120.2362 0000482 106.4533 253.6386 12.62263519561959
